STARLINK-5407           
1 54858U 22177AQ  25168.23716421  .00000221  00000+0  31448-4 0  9995
2 54858  43.0026 122.7773 0000819 260.0926  99.9824 15.02534839137179
STARLINK-5409           
1 54859U 22177AR  25168.55956066  .00000571  00000+0  57366-4 0  9997
2 54859  43.0027 120.8935 0001238 266.7034  93.3667 15.02535570137221
STARLINK-5406           
1 54860U 22177AS  25168.15514354  .00000113  00000+0  23464-4 0  9999
2 54860  43.0035 123.0184 0001181 274.7526  85.3182 15.02535588137160
STARLINK-5400           
1 54861U 22177AT  25168.30475218  .00000104  00000+0  22769-4 0  9999
2 54861  43.0032 122.4198 0001134 267.0749  92.9964 15.02532094137189
STARLINK-5403           
1 54862U 22177AU  25168.26159966 -.00000120  00000+0  62221-5 0  9991
2 54862  43.0029 122.9753 0001112 265.9814  94.0901 15.02528424137179
STARLINK-5405           
1 54863U 22177AV  25168.56289387  .00000036  00000+0  17763-4 0  9991
2 54863  43.0035 120.9201 0001101 268.9972  91.0744 15.02533157137226
STARLINK-5359           
1 54864U 22177AW  25168.21829615  .00000131  00000+0  24762-4 0  9991
2 54864  43.0029 122.6366 0001110 270.0137  90.0578 15.02532025136066
STARLINK-5411           
1 54865U 22177AX  25168.23383136 -.00000048  00000+0  11531-4 0  9995
2 54865  43.0031 122.7481 0001058 280.6478  79.4245 15.02534919137174
STARLINK-5398           
1 54866U 22177AY  25168.20830302  .00001291  00000+0  11060-3 0  9991
2 54866  43.0029 122.5618 0001180 277.4517  82.6192 15.02536496137175
STARLINK-5396           
1 54867U 22177AZ  25168.22051210  .00000480  00000+0  50585-4 0  9992
2 54867  43.0031 122.6530 0000990 285.5811  74.4922 15.02535780136071
STARLINK-5379           
1 54868U 22177BA  25168.27034172  .00000653  00000+0  63387-4 0  9992
2 54868  43.0035 122.1625 0001203 270.7351  89.3354 15.02534877137182
STARLINK-5402           
1 54869U 22177BB  25168.21385320  .00000296  00000+0  36997-4 0  9991
2 54869  43.0030 122.6016 0000937 282.0194  78.0544 15.02534434137175
STARLINK-5401           
1 54870U 22177BC  25168.27256081  .00000128  00000+0  24568-4 0  9995
2 54870  43.0042 122.1773 0001219 273.0170  87.0533 15.02533702137189
STARLINK-5397           
1 54871U 22177BD  25168.54735251  .00001060  00000+0  93491-4 0  9994
2 54871  43.0030 120.8007 0000872 256.0962 103.9783 15.02537364137224
STARLINK-5390           
1 54872U 22177BE  25168.59718429  .00000088  00000+0  21582-4 0  9999
2 54872  43.0034 120.3402 0000918 283.8120  76.2620 15.02535249137231
STARLINK-5091           
1 54873U 22177BF  25168.26701187  .00000499  00000+0  52022-4 0  9996
2 54873  43.0039 122.1372 0001082 285.9472  74.1251 15.02535014137180
STARLINK-5277           
1 55269U 23010A   25168.78455875 -.00000233  00000+0 -11732-4 0  9991
2 55269  70.0002 352.4593 0003068 269.2668  90.8140 14.98328854133387
STARLINK-5306           
1 55271U 23010C   25168.78873199  .00000457  00000+0  46060-4 0  9995
2 55271  69.9996 352.4738 0002774 269.3279  90.7562 14.98332002133109
STARLINK-5310           
1 55272U 23010D   25168.77203312  .00000589  00000+0  57167-4 0  9995
2 55272  69.9998 352.4200 0002699 272.3733  87.7117 14.98322174133102
STARLINK-5291           
1 55273U 23010E   25168.68023164  .00000169  00000+0  21989-4 0  9998
2 55273  69.9995 352.5004 0002461 266.6769  93.4108 14.98330859133096
STARLINK-5236           
1 55274U 23010F   25168.70922684  .00000652  00000+0  62438-4 0  9998
2 55274  69.9994 332.7299 0003231 264.2379  95.8412 14.98327446133585
STARLINK-5260           
1 55275U 23010G   25168.91668981  .00030693  00000+0  25696-2 0  9990
2 55275  70.0014 332.1578 0003020 274.5992 168.3533 14.98319037  5818
STARLINK-5261           
1 55276U 23010H   25168.70149536 -.00080399  00000+0 -69212-2 0  9990
2 55276  69.9997 332.7022 0002434 339.5011  20.6049 14.97693198133577
STARLINK-5299           
1 55277U 23010J   25168.77621199  .00000481  00000+0  48096-4 0  9999
2 55277  70.0001 352.4301 0002939 269.4347  90.6475 14.98327191133106
STARLINK-5289           
1 55278U 23010K   25168.75953119 -.00000803  00000+0 -59539-4 0  9992
2 55278  69.9986 352.3700 0003805 255.9736 104.1000 14.98321073133099
STARLINK-5323           
1 55279U 23010L   25168.91668981  .01268513  73898-3  40523-2 0  9994
2 55279  69.9998 343.1904 0004055 279.7783 134.4064 15.91026793  5764
STARLINK-5331           
1 55280U 23010M   25168.79707882  .00000601  00000+0  58169-4 0  9995
2 55280  69.9996 352.4926 0002611 280.6688  79.4177 14.98331005133094
STARLINK-5298           
1 55281U 23010N   25168.76786991  .00000701  00000+0  66547-4 0  9991
2 55281  69.9998 352.4005 0003147 268.5411  91.5387 14.98339223133097
STARLINK-5330           
1 55282U 23010P   25168.67622016  .00000752  00000+0  70831-4 0  9996
2 55282  69.9991 352.4781 0002801 266.3990  93.6849 14.98332655133083
STARLINK-5317           
1 55283U 23010Q   25168.76368712  .00000222  00000+0  26399-4 0  9999
2 55283  69.9999 352.3866 0002668 264.8221  95.2633 14.98330465133093
STARLINK-5337           
1 55284U 23010R   25168.67606033  .00000595  00000+0  57689-4 0  9990
2 55284  69.9994 352.4771 0002453 267.8155  92.2723 14.98319640133084
STARLINK-5332           
1 55285U 23010S   25168.65073019  .00000276  00000+0  30918-4 0  9993
2 55285  69.9990 312.6348 0002873 273.4547  86.6283 14.98329613134948
STARLINK-5338           
1 55286U 23010T   25168.69253964  .00001389  00000+0  12424-3 0  9994
2 55286  69.9992 332.6701 0003454 269.9393  90.1370 14.98321427133571
STARLINK-5341           
1 55287U 23010U   25168.70064779 -.00000161  00000+0 -57395-5 0  9998
2 55287  69.9996 312.7345 0002834 274.5590  85.5245 14.98330703134062
STARLINK-5311           
1 55288U 23010V   25168.74694946  .00001147  00000+0  10392-3 0  9995
2 55288  69.9995 332.4568 0003103 270.6593  89.4211 14.98336813133588
STARLINK-5320           
1 55289U 23010W   25168.62994188  .00000017  00000+0  92379-5 0  9996
2 55289  69.9993 332.8523 0002949 269.2819  90.8002 14.98332263133561
STARLINK-5266           
1 55290U 23010X   25168.68835372  .00000422  00000+0  43181-4 0  9999
2 55290  69.9993 332.6547 0002527 270.4070  89.6800 14.98333307133575
STARLINK-5327           
1 55291U 23010Y   25168.70505131 -.00000262  00000+0 -14168-4 0  9997
2 55291  69.9996 332.7119 0002762 266.7367  93.3476 14.98330258133576
STARLINK-5325           
1 55292U 23010Z   25168.74259168  .00000774  00000+0  72665-4 0  9990
2 55292  69.9997 332.4413 0003034 268.0400  92.0412 14.98332987133586
STARLINK-5287           
1 55293U 23010AA  25168.74678021  .00000567  00000+0  55345-4 0  9990
2 55293  69.9991 332.4574 0003160 268.2310  91.8487 14.98315694133586
STARLINK-5286           
1 55294U 23010AB  25168.68441983  .00000689  00000+0  65491-4 0  9997
2 55294  69.9996 352.5061 0002894 262.4151  97.6680 14.98336027133085
STARLINK-5293           
1 55295U 23010AC  25168.79290811  .00000157  00000+0  20992-4 0  9999
2 55295  69.9999 352.4876 0002981 264.8421  95.2398 14.98330539133100
STARLINK-5285           
1 55296U 23010AD  25168.73006527 -.00004231  00000+0 -34692-3 0  9993
2 55296  69.9998 332.3975 0002425 265.8788  94.2093 14.98340408134464
STARLINK-5284           
1 55297U 23010AE  25168.73843206  .00000786  00000+0  73631-4 0  9993
2 55297  69.9994 332.4276 0003155 269.2966  90.7831 14.98337304133587
STARLINK-5270           
1 55299U 23010AG  25168.52561883  .00000038  00000+0  10937-4 0  9990
2 55299  70.0016 332.8910 0002783 263.7490  96.3352 14.98325627134433
STARLINK-5308           
1 55300U 23010AH  25168.72172470  .00000365  00000+0  38383-4 0  9993
2 55300  69.9993 332.3681 0002630 272.6752  87.4106 14.98328780133584
STARLINK-5321           
1 55302U 23010AK  25168.73423733  .00000880  00000+0  81593-4 0  9990
2 55302  69.9997 332.4094 0002928 263.9755  96.1070 14.98320785133589
STARLINK-5322           
1 55303U 23010AL  25168.80540179 -.00000029  00000+0  53599-5 0  9995
2 55303  69.9994 352.1261 0002625 270.1636  89.9222 14.98331362133104
STARLINK-5318           
1 55304U 23010AM  25168.71754960 -.00000507  00000+0 -34739-4 0  9997
2 55304  69.9999 332.3538 0002462 271.2356  88.8521 14.98334102133584
STARLINK-5316           
1 55305U 23010AN  25168.71340043  .00000085  00000+0  14881-4 0  9996
2 55305  69.9997 332.7439 0003088 268.9250  91.1556 14.98330039133588
STARLINK-5295           
1 55306U 23010AP  25168.68396011 -.00000169  00000+0 -63941-5 0  9996
2 55306  69.9999 312.7643 0002854 266.8561  93.2272 14.98330914134073
STARLINK-5288           
1 55307U 23010AQ  25168.68813367 -.00000084  00000+0  75997-6 0  9995
2 55307  69.9998 312.7786 0003270 269.8115  90.2669 14.98329064134073
STARLINK-5315           
1 55309U 23010AS  25168.70480685 -.00000694  00000+0 -50402-4 0  9993
2 55309  70.0000 312.4349 0003168 267.6863  92.3934 14.98327884134083
STARLINK-5309           
1 55310U 23010AT  25168.67560782  .00000545  00000+0  53449-4 0  9995
2 55310  69.9996 312.7328 0003008 268.0450  92.0365 14.98331576134073
STARLINK-5312           
1 55311U 23010AU  25168.67977634 -.00001598  00000+0 -12613-3 0  9992
2 55311  69.9999 312.7479 0003263 267.9052  92.1734 14.98331911134943
STARLINK-5296           
1 55312U 23010AV  25168.65055461 -.00000052  00000+0  34596-5 0  9995
2 55312  69.9994 312.5327 0003107 270.1668  89.9135 14.98331417134945
STARLINK-5313           
1 55313U 23010AW  25168.66726040 -.00000070  00000+0  19732-5 0  9990
2 55313  69.9992 312.7034 0003257 269.0219  91.0567 14.98329878134947
STARLINK-5305           
1 55314U 23010AX  25168.67143296  .00000988  00000+0  90541-4 0  9991
2 55314  69.9996 312.7163 0003208 269.2056  90.8736 14.98332548134945
STARLINK-4623           
1 55315U 23010AY  25168.68418374  .00000235  00000+0  27463-4 0  9993
2 55315  69.9997 332.6397 0002930 269.0551  91.0272 14.98333256133568
